[{"OBJECT_NAME":"STARLINK-6348","OBJECT_ID":"2023-099AJ","EPOCH":"2026-03-09T11:31:28.762464","MEAN_MOTION":15.02537112,"ECCENTRICITY":0.0001371,"INCLINATION":43.003,"RA_OF_ASC_NODE":237.203,"ARG_OF_PERICENTER":262.258,"MEAN_ANOMALY":97.8107,"EPHEMERIS_TYPE":0,"CLASSIFICATION_TYPE":"U","NORAD_CAT_ID":57360,"ELEMENT_SET_NO":999,"REV_AT_EPOCH":14623,"BSTAR":2.5108671e-5,"MEAN_MOTION_DOT":1.36e-6,"MEAN_MOTION_DDOT":0},{"OBJECT_NAME":"DELTA 1 DEB [YO]","OBJECT_ID":"1962-025C","EPOCH":"2026-03-09T06:59:27.829248","MEAN_MOTION":14.61649282,"ECCENTRICITY":0.01914532,"INCLINATION":58.2466,"RA_OF_ASC_NODE":31.0391,"ARG_OF_PERICENTER":170.2979,"MEAN_ANOMALY":190.1836,"EPHEMERIS_TYPE":0,"CLASSIFICATION_TYPE":"U","NORAD_CAT_ID":312,"ELEMENT_SET_NO":999,"REV_AT_EPOCH":34431,"BSTAR":0.00017996806,"MEAN_MOTION_DOT":9.52e-6,"MEAN_MOTION_DDOT":0}]
